[
    {
        "CCSDS_OMM_VERS": "3.0",
        "COMMENT": "GENERATED VIA SPACE-TRACK.ORG API",
        "CREATION_DATE": "2025-05-04T02:26:54",
        "ORIGINATOR": "18 SPCS",
        "OBJECT_NAME": "BEIDOU 2 G8",
        "OBJECT_ID": "2019-027A",
        "CENTER_NAME": "EARTH",
        "REF_FRAME": "TEME",
        "TIME_SYSTEM": "UTC",
        "MEAN_ELEMENT_THEORY": "SGP4",
        "EPOCH": "2025-05-03T20:11:44.160576",
        "MEAN_MOTION": "1.00269285",
        "ECCENTRICITY": "0.00048850",
        "INCLINATION": "1.5814",
        "RA_OF_ASC_NODE": "74.9045",
        "ARG_OF_PERICENTER": "255.7591",
        "MEAN_ANOMALY": "338.7630",
        "EPHEMERIS_TYPE": "0",
        "CLASSIFICATION_TYPE": "U",
        "NORAD_CAT_ID": "44231",
        "ELEMENT_SET_NO": "999",
        "REV_AT_EPOCH": "2197",
        "BSTAR": "0.00000000000000",
        "MEAN_MOTION_DOT": "-0.00000258",
        "MEAN_MOTION_DDOT": "0.0000000000000",
        "SEMIMAJOR_AXIS": "42165.433",
        "PERIOD": "1436.133",
        "APOAPSIS": "35807.896",
        "PERIAPSIS": "35766.700",
        "OBJECT_TYPE": "PAYLOAD",
        "RCS_SIZE": "LARGE",
        "COUNTRY_CODE": "PRC",
        "LAUNCH_DATE": "2019-05-17",
        "SITE": "XSC",
        "DECAY_DATE": null,
        "FILE": "4718307",
        "GP_ID": "286799854",
        "TLE_LINE0": "0 BEIDOU 2 G8",
        "TLE_LINE1": "1 44231U 19027A   25123.84148334 -.00000258  00000-0  00000-0 0  9997",
        "TLE_LINE2": "2 44231   1.5814  74.9045 0004885 255.7591 338.7630  1.00269285 21975"
    }
]